HST                     
1 20580U 90037B   26204.25693191  .00005734  00000+0  17776-3 0  9993
2 20580  28.4721 193.9755 0001928 181.0239 179.0353 15.31122099794106
POLAR                   
1 23802U 96013A   26203.46798406  .00000205  00000+0  00000+0 0  9996
2 23802  79.9029 226.6327 6505799 207.8657  92.2145  1.29845994145315
SWAS                    
1 25560U 98071A   26204.78825147  .00003650  00000+0  23172-3 0  9990
2 25560  69.8955 133.1200 0007274 220.1342 139.9286 15.09791392502793
CXO                     
1 25867U 99040B   26206.40147406  .00000689  00000+0  00000+0 0  9993
2 25867  56.6765 115.6641 7773461 309.9148   0.5404  0.37796798 17465
XMM-NEWTON              
1 25989U 99066A   26205.24911900  .00000048  00000+0  00000+0 0  9994
2 25989  64.2866 282.5076 4663790  64.2318   0.0628  0.50127611 23189
TERRA                   
1 25994U 99068A   26204.85944066  .00000330  00000+0  76192-4 0  9991
2 25994  97.9435 252.9477 0003661 105.7480 308.7370 14.61128749414960
CLUSTER II-FM7 (SAMBA)  
1 26410U 00041A   26206.06296890  .00027982 -17735-4  00000+0 0  9999
2 26410 149.7691  57.6888 9095425 275.3504 359.4742  0.44881598 20489
CLUSTER II-FM8 (TANGO)  
1 26464U 00045B   26204.45555065  .00018617 -85750-5  00000+0 0  9993
2 26464 149.9706  58.6134 9097692 276.0928   2.0465  0.44435751 20476
ODIN                    
1 26702U 01007A   26204.10016903  .00656630  18429-3  16549-2 0  9999
2 26702  97.3683 247.7807 0005055 166.7093 193.4318 15.95596686395081
TIMED                   
1 26998U 01055B   26204.87197389  .00001127  00000+0  10570-3 0  9997
2 26998  74.0676 161.1506 0002395 290.8835  69.2093 14.95359418336303
CORIOLIS                
1 27640U 03001A   26204.27517604  .00000097  00000+0  66273-4 0  9992
2 27640  98.7140 210.6106 0015162 107.5660 252.7174 14.19953572219349
SORCE                   
1 27651U 03004A   26204.66501875  .00002705  00000+0  20319-3 0  9991
2 27651  39.9916  53.5273 0018527 310.9662  48.9529 15.03875063277398
MOST                    
1 27843U 03031D   26204.46554655  .00000055  00000+0  45001-4 0  9998
2 27843  98.7056 211.6865 0010536 142.3840 217.8076 14.21328966195869
SCISAT 1                
1 27858U 03036A   26204.69115425  .00000513  00000+0  70154-4 0  9998
2 27858  73.9300  98.8145 0006933 164.5135 195.6255 14.81486239236858
SWIFT                   
1 28485U 04047A   26204.40017500  .00067119  00000+0  48038-3 0  9992
2 28485  20.5516 264.8126 0002649 113.4808 246.5917 15.71938463192567
HINODE (SOLAR-B)        
1 29479U 06041A   26204.02222696  .00000547  00000+0  10227-3 0  9995
2 29479  98.0548 219.6469 0017684 169.5910 190.5665 14.68665420 60135
SHIJIAN-6 02A (SJ-6 02A)
1 29505U 06046A   26204.89457036  .00005448  00000+0  27661-3 0  9998
2 29505  97.6353 246.2414 0003763  45.5967 314.5573 15.17320495 77834
SHIJIAN-6 02B (SJ-6 02B)
1 29506U 06046B   26204.86789517  .00000774  00000+0  64572-4 0  9998
2 29506  97.7146 233.6984 0012397 304.3576  55.6475 15.01448165 76249
FGRST (GLAST)           
1 33053U 08029A   26204.63251466  .00003138  00000+0  11194-3 0  9993
2 33053  25.5831 311.3932 0008393  40.0638 320.0519 15.24111070  1256
SDO                     
1 36395U 10005A   26204.18438020 -.00000101  00000+0  00000+0 0  9993
2 36395  34.7238  85.7942 0001577  45.7486 133.6301  1.00277674 60427
CRYOSAT 2               
1 36508U 10013A   26204.81596652  .00000065  00000+0  15359-4 0  9990
2 36508  92.0352 286.2061 0002528  98.6122 261.5372 14.51900040863394
X-SAT                   
1 37389U 11015C   26204.87261565 -.00000021  00000+0  86147-5 0  9996
2 37389  98.3539 180.1532 0012868 232.7043 127.2965 14.25215315792903
GCOM-W1 (SHIZUKU)       
1 38337U 12025A   26204.83084752  .00000355  00000+0  88796-4 0  9999
2 38337  98.2024 144.8322 0001261  80.9212 294.5660 14.57095717754371
NUSTAR                  
1 38358U 12031A   26204.91668980  .00006316  00000+0  33361-3 0  9999
2 38358   6.0250 118.5516 0008661 293.1725  65.6516 15.09100399  1297
NEOSSAT                 
1 39089U 13009D   26204.44637549  .00000131  00000+0  60109-4 0  9992
2 39089  98.4196  23.6202 0011882 134.2283 225.9880 14.35837721701942
BRITE-AUSTRIA           
1 39091U 13009F   26204.42694106  .00000152  00000+0  66177-4 0  9999
2 39091  98.4015  22.9694 0011164 128.0957 232.1238 14.36554972702251
IRIS                    
1 39197U 13033A   26204.52828596  .00000922  00000+0  11158-3 0  9999
2 39197  97.9318  43.6906 0023925 196.8386 163.2038 14.85949309705779
HISAKI (SPRINT-A)       
1 39253U 13049A   26204.80551441  .00000093  00000+0  38514-4 0  9997
2 39253  29.7218  33.8383 0136923 313.6372  45.2915 13.55547251636391
CASSIOPE                
1 39265U 13055A   26204.79861639  .00019978 -46693-6  21406-3 0  9997
2 39265  80.9134  22.1510 0281366 298.6702  58.6504 15.27730417673251
STSAT-3                 
1 39422U 13066G   26204.86606170  .00004683  00000+0  35282-3 0  9997
2 39422  97.6223 174.1630 0008725 269.9169  90.1057 15.02934457689710
SWARM B                 
1 39451U 13067A   26204.79276163  .00003324  00000+0  11773-3 0  9997
2 39451  87.7465 331.1983 0002252  92.8420 267.3087 15.28760151688837
